{"fetched_at":"2026-07-22T07:09:22.096Z","source":"https://celestrak.org/NORAD/elements/gp.php?GROUP=oneweb&FORMAT=JSON","constellation":"oneweb","records":[{"OBJECT_NAME":"ONEWEB-0588","OBJECT_ID":"2023-004P","EPOCH":"2026-07-21T07:53:04.993728","CLASSIFICATION_TYPE":"U","MEAN_MOTION":13.18687109,"ECCENTRICITY":0.00020232,"INCLINATION":87.9191,"RA_OF_ASC_NODE":328.6789,"ARG_OF_PERICENTER":84.5848,"MEAN_ANOMALY":275.5515,"EPHEMERIS_TYPE":0,"NORAD_CAT_ID":55153,"ELEMENT_SET_NO":999,"REV_AT_EPOCH":17419,"BSTAR":0.0001593945,"MEAN_MOTION_DOT":7.6e-7,"MEAN_MOTION_DDOT":0},{"OBJECT_NAME":"ONEWEB-0598","OBJECT_ID":"2023-004Q","EPOCH":"2026-07-21T10:01:12.634176","CLASSIFICATION_TYPE":"U","MEAN_MOTION":13.11415648,"ECCENTRICITY":0.00025409,"INCLINATION":87.889,"RA_OF_ASC_NODE":14.2521,"ARG_OF_PERICENTER":95.4229,"MEAN_ANOMALY":264.7189,"EPHEMERIS_TYPE":0,"NORAD_CAT_ID":55154,"ELEMENT_SET_NO":999,"REV_AT_EPOCH":17038,"BSTAR":-0.00067794564,"MEAN_MOTION_DOT":-0.00000228,"MEAN_MOTION_DDOT":0},{"OBJECT_NAME":"ONEWEB-0599","OBJECT_ID":"2023-004R","EPOCH":"2026-07-21T08:21:11.341152","CLASSIFICATION_TYPE":"U","MEAN_MOTION":13.17648018,"ECCENTRICITY":0.00019536,"INCLINATION":87.9152,"RA_OF_ASC_NODE":359.0684,"ARG_OF_PERICENTER":100.7613,"MEAN_ANOMALY":259.3738,"EPHEMERIS_TYPE":0,"NORAD_CAT_ID":55155,"ELEMENT_SET_NO":999,"REV_AT_EPOCH":17198,"BSTAR":0.00018325884,"MEAN_MOTION_DOT":8.4e-7,"MEAN_MOTION_DDOT":0},{"OBJECT_NAME":"ONEWEB-0614","OBJECT_ID":"2023-004S","EPOCH":"2026-07-21T09:53:53.284128","CLASSIFICATION_TYPE":"U","MEAN_MOTION":13.11414962,"ECCENTRICITY":0.00016757,"INCLINATION":87.8886,"RA_OF_ASC_NODE":14.261,"ARG_OF_PERICENTER":85.6482,"MEAN_ANOMALY":274.4837,"EPHEMERIS_TYPE":0,"NORAD_CAT_ID":55156,"ELEMENT_SET_NO":999,"REV_AT_EPOCH":17032,"BSTAR":-0.00016321942,"MEAN_MOTION_DOT":-4.5e-7,"MEAN_MOTION_DDOT":0},{"OBJECT_NAME":"ONEWEB-0616","OBJECT_ID":"2023-004T","EPOCH":"2026-07-21T09:21:56.212416","CLASSIFICATION_TYPE":"U","MEAN_MOTION":13.17647897,"ECCENTRICITY":0.0002044,"INCLINATION":87.9154,"RA_OF_ASC_NODE":359.0643,"ARG_OF_PERICENTER":121.1236,"MEAN_ANOMALY":239.0096,"EPHEMERIS_TYPE":0,"NORAD_CAT_ID":55157,"ELEMENT_SET_NO":999,"REV_AT_EPOCH":17220,"BSTAR":0.000087485379,"MEAN_MOTION_DOT":4.7e-7,"MEAN_MOTION_DDOT":0},{"OBJECT_NAME":"ONEWEB-0617","OBJECT_ID":"2023-004U","EPOCH":"2026-07-21T09:36:47.380032","CLASSIFICATION_TYPE":"U","MEAN_MOTION":13.11416937,"ECCENTRICITY":0.00017721,"INCLINATION":87.8893,"RA_OF_ASC_NODE":14.2564,"ARG_OF_PERICENTER":80.2762,"MEAN_ANOMALY":279.8566,"EPHEMERIS_TYPE":0,"NORAD_CAT_ID":55158,"ELEMENT_SET_NO":999,"REV_AT_EPOCH":17034,"BSTAR":0.0012347895,"MEAN_MOTION_DOT":0.0000045,"MEAN_MOTION_DDOT":0},{"OBJECT_NAME":"ONEWEB-0618","OBJECT_ID":"2023-004V","EPOCH":"2026-07-21T07:29:37.250880","CLASSIFICATION_TYPE":"U","MEAN_MOTION":15.13440462,"ECCENTRICITY":0.00132317,"INCLINATION":86.9107,"RA_OF_ASC_NODE":163.7784,"ARG_OF_PERICENTER":154.1325,"MEAN_ANOMALY":206.058,"EPHEMERIS_TYPE":0,"NORAD_CAT_ID":55159,"ELEMENT_SET_NO":999,"REV_AT_EPOCH":18742,"BSTAR":0.00026113231,"MEAN_MOTION_DOT":0.00004707,"MEAN_MOTION_DDOT":0},{"OBJECT_NAME":"ONEWEB-0619","OBJECT_ID":"2023-004W","EPOCH":"2026-07-21T10:08:06.353664","CLASSIFICATION_TYPE":"U","MEAN_MOTION":13.17648069,"ECCENTRICITY":0.00014256,"INCLINATION":87.9166,"RA_OF_ASC_NODE":359.0416,"ARG_OF_PERICENTER":95.6006,"MEAN_ANOMALY":264.5289,"EPHEMERIS_TYPE":0,"NORAD_CAT_ID":55160,"ELEMENT_SET_NO":999,"REV_AT_EPOCH":17210,"BSTAR":0.00010366677,"MEAN_MOTION_DOT":5.3e-7,"MEAN_MOTION_DDOT":0},{"OBJECT_NAME":"ONEWEB-0620","OBJECT_ID":"2023-004X","EPOCH":"2026-07-21T11:19:20.787168","CLASSIFICATION_TYPE":"U","MEAN_MOTION":13.11416557,"ECCENTRICITY":0.00020838,"INCLINATION":87.8887,"RA_OF_ASC_NODE":14.2488,"ARG_OF_PERICENTER":89.2533,"MEAN_ANOMALY":270.8833,"EPHEMERIS_TYPE":0,"NORAD_CAT_ID":55161,"ELEMENT_SET_NO":999,"REV_AT_EPOCH":17032,"BSTAR":0.0015349327,"MEAN_MOTION_DOT":0.00000557,"MEAN_MOTION_DDOT":0},{"OBJECT_NAME":"ONEWEB-0621","OBJECT_ID":"2023-004Y","EPOCH":"2026-07-21T10:08:32.225280","CLASSIFICATION_TYPE":"U","MEAN_MOTION":13.11415338,"ECCENTRICITY":0.00016463,"INCLINATION":87.8893,"RA_OF_ASC_NODE":14.2507,"ARG_OF_PERICENTER":86.2353,"MEAN_ANOMALY":273.8964,"EPHEMERIS_TYPE":0,"NORAD_CAT_ID":55162,"ELEMENT_SET_NO":999,"REV_AT_EPOCH":17029,"BSTAR":-0.001311231,"MEAN_MOTION_DOT":-0.00000452,"MEAN_MOTION_DDOT":0},{"OBJECT_NAME":"ONEWEB-0622","OBJECT_ID":"2023-004Z","EPOCH":"2026-07-21T10:15:51.577056","CLASSIFICATION_TYPE":"U","MEAN_MOTION":13.11415926,"ECCENTRICITY":0.00019767,"INCLINATION":87.8898,"RA_OF_ASC_NODE":14.2525,"ARG_OF_PERICENTER":69.9435,"MEAN_ANOMALY":290.1906,"EPHEMERIS_TYPE":0,"NORAD_CAT_ID":55163,"ELEMENT_SET_NO":999,"REV_AT_EPOCH":17028,"BSTAR":-0.0016291392,"MEAN_MOTION_DOT":-0.00000565,"MEAN_MOTION_DDOT":0},{"OBJECT_NAME":"ONEWEB-0623","OBJECT_ID":"2023-004AA","EPOCH":"2026-07-21T04:32:47.018112","CLASSIFICATION_TYPE":"U","MEAN_MOTION":13.17648479,"ECCENTRICITY":0.0001405,"INCLINATION":87.9151,"RA_OF_ASC_NODE":359.1139,"ARG_OF_PERICENTER":71.2309,"MEAN_ANOMALY":288.8975,"EPHEMERIS_TYPE":0,"NORAD_CAT_ID":55164,"ELEMENT_SET_NO":999,"REV_AT_EPOCH":17206,"BSTAR":0.000033629245,"MEAN_MOTION_DOT":2.6e-7,"MEAN_MOTION_DDOT":0},{"OBJECT_NAME":"ONEWEB-0624","OBJECT_ID":"2023-004AB","EPOCH":"2026-07-21T15:23:32.379072","CLASSIFICATION_TYPE":"U","MEAN_MOTION":13.12928824,"ECCENTRICITY":0.00017531,"INCLINATION":87.8974,"RA_OF_ASC_NODE":343.7296,"ARG_OF_PERICENTER":92.8999,"MEAN_ANOMALY":267.2331,"EPHEMERIS_TYPE":0,"NORAD_CAT_ID":55165,"ELEMENT_SET_NO":999,"REV_AT_EPOCH":17259,"BSTAR":-0.00035715485,"MEAN_MOTION_DOT":-0.00000117,"MEAN_MOTION_DDOT":0},{"OBJECT_NAME":"ONEWEB-0625","OBJECT_ID":"2023-004AC","EPOCH":"2026-07-21T09:46:14.525184","CLASSIFICATION_TYPE":"U","MEAN_MOTION":13.17647974,"ECCENTRICITY":0.00017888,"INCLINATION":87.9153,"RA_OF_ASC_NODE":359.0671,"ARG_OF_PERICENTER":99.184,"MEAN_ANOMALY":260.9493,"EPHEMERIS_TYPE":0,"NORAD_CAT_ID":55166,"ELEMENT_SET_NO":999,"REV_AT_EPOCH":17208,"BSTAR":0.00019140369,"MEAN_MOTION_DOT":8.7e-7,"MEAN_MOTION_DDOT":0},{"OBJECT_NAME":"ONEWEB-0626","OBJECT_ID":"2023-004AD","EPOCH":"2026-07-21T09:31:40.764576","CLASSIFICATION_TYPE":"U","MEAN_MOTION":13.1764812,"ECCENTRICITY":0.00021789,"INCLINATION":87.9154,"RA_OF_ASC_NODE":359.0687,"ARG_OF_PERICENTER":96.5519,"MEAN_ANOMALY":263.586,"EPHEMERIS_TYPE":0,"NORAD_CAT_ID":55167,"ELEMENT_SET_NO":999,"REV_AT_EPOCH":17208,"BSTAR":0.00010297926,"MEAN_MOTION_DOT":5.3e-7,"MEAN_MOTION_DDOT":0},{"OBJECT_NAME":"ONEWEB-0627","OBJECT_ID":"2023-004AE","EPOCH":"2026-07-21T09:14:39.917472","CLASSIFICATION_TYPE":"U","MEAN_MOTION":13.17649036,"ECCENTRICITY":0.000154,"INCLINATION":87.9154,"RA_OF_ASC_NODE":359.0713,"ARG_OF_PERICENTER":80.5807,"MEAN_ANOMALY":279.5498,"EPHEMERIS_TYPE":0,"NORAD_CAT_ID":55168,"ELEMENT_SET_NO":999,"REV_AT_EPOCH":17208,"BSTAR":0.000054091836,"MEAN_MOTION_DOT":3.4e-7,"MEAN_MOTION_DDOT":0}]}
