{"epoch":1784710044,"count":18256,"objects":[{"id":"55153","name":"ONEWEB-0588","type":"PAYLOAD","l1":"1 55153U 23004P   26202.32853002  .00000076  00000-0  15939-3 0  9996","l2":"2 55153  87.9191 328.6789 0002023  84.5848 275.5515 13.18687109174199"},{"id":"55154","name":"ONEWEB-0598","type":"PAYLOAD","l1":"1 55154U 23004Q   26202.41750734 -.00000228  00000-0 -67795-3 0  9993","l2":"2 55154  87.8890  14.2521 0002541  95.4229 264.7189 13.11415648170380"},{"id":"55155","name":"ONEWEB-0599","type":"PAYLOAD","l1":"1 55155U 23004R   26202.34804793  .00000084  00000-0  18326-3 0  9995","l2":"2 55155  87.9152 359.0684 0001954 100.7613 259.3738 13.17648018171989"},{"id":"55156","name":"ONEWEB-0614","type":"PAYLOAD","l1":"1 55156U 23004S   26202.41242227 -.00000045  00000-0 -16322-3 0  9995","l2":"2 55156  87.8886  14.2610 0001676  85.6482 274.4837 13.11414962170326"},{"id":"55157","name":"ONEWEB-0616","type":"PAYLOAD","l1":"1 55157U 23004T   26202.39023394  .00000047  00000-0  87485-4 0  9994","l2":"2 55157  87.9154 359.0643 0002044 121.1236 239.0096 13.17647897172209"},{"id":"55158","name":"ONEWEB-0617","type":"PAYLOAD","l1":"1 55158U 23004U   26202.40054838  .00000450  00000-0  12348-2 0  9996","l2":"2 55158  87.8893  14.2564 0001772  80.2762 279.8566 13.11416937170347"},{"id":"55159","name":"ONEWEB-0618","type":"PAYLOAD","l1":"1 55159U 23004V   26202.31223670  .00004707  00000-0  26113-3 0  9994","l2":"2 55159  86.9107 163.7784 0013232 154.1325 206.0580 15.13440462187429"},{"id":"55160","name":"ONEWEB-0619","type":"PAYLOAD","l1":"1 55160U 23004W   26202.42229576  .00000053  00000-0  10367-3 0  9993","l2":"2 55160  87.9166 359.0416 0001426  95.6006 264.5289 13.17648069172105"},{"id":"55161","name":"ONEWEB-0620","type":"PAYLOAD","l1":"1 55161U 23004X   26202.47176837  .00000557  00000-0  15349-2 0  9993","l2":"2 55161  87.8887  14.2488 0002084  89.2533 270.8833 13.11416557170325"},{"id":"55162","name":"ONEWEB-0621","type":"PAYLOAD","l1":"1 55162U 23004Y   26202.42259520 -.00000452  00000-0 -13112-2 0  9992","l2":"2 55162  87.8893  14.2507 0001646  86.2353 273.8964 13.11415338170295"},{"id":"55163","name":"ONEWEB-0622","type":"PAYLOAD","l1":"1 55163U 23004Z   26202.42768029 -.00000565  00000-0 -16291-2 0  9998","l2":"2 55163  87.8898  14.2525 0001977  69.9435 290.1906 13.11415926170287"},{"id":"55164","name":"ONEWEB-0623","type":"PAYLOAD","l1":"1 55164U 23004AA  26202.18943308  .00000026  00000-0  33629-4 0  9993","l2":"2 55164  87.9151 359.1139 0001405  71.2309 288.8975 13.17648479172060"},{"id":"55165","name":"ONEWEB-0624","type":"PAYLOAD","l1":"1 55165U 23004AB  26202.64134698 -.00000117  00000-0 -35715-3 0  9999","l2":"2 55165  87.8974 343.7296 0001753  92.8999 267.2331 13.12928824172591"},{"id":"55166","name":"ONEWEB-0625","type":"PAYLOAD","l1":"1 55166U 23004AC  26202.40711256  .00000087  00000-0  19140-3 0  9993","l2":"2 55166  87.9153 359.0671 0001789  99.1840 260.9493 13.17647974172085"},{"id":"55167","name":"ONEWEB-0626","type":"PAYLOAD","l1":"1 55167U 23004AD  26202.39699959  .00000053  00000-0  10298-3 0  9995","l2":"2 55167  87.9154 359.0687 0002179  96.5519 263.5860 13.17648120172083"},{"id":"55168","name":"ONEWEB-0627","type":"PAYLOAD","l1":"1 55168U 23004AE  26202.38518423  .00000034  00000-0  54092-4 0  9991","l2":"2 55168  87.9154 359.0713 0001540  80.5807 279.5498 13.17649036172089"}]}